IRIDIUM 150             
1 43257U 18030J   26201.14865093  .00000037  00000+0  62476-5 0  9999
2 43257  86.3955 276.6857 0002332  95.9228 264.2233 14.34217266434880
IRIDIUM 143             
1 43258U 18030K   26200.92031811  .00000058  00000+0  13754-4 0  9995
2 43258  86.3956 276.8747 0002342  95.8548 264.2915 14.34217665434786
IRIDIUM 161             
1 43478U 18047C   26201.10114761  .00000158  00000+0  40933-4 0  9994
2 43478  86.4456  74.7055 0002165  80.8407 279.3039 14.43277179429889
IRIDIUM 152             
1 43479U 18047D   26201.10234064 -.00000069  00000+0 -31882-4 0  9990
2 43479  86.3928  74.5659 0001971  84.0671 276.0750 14.34217427427202
IRIDIUM 147             
1 43480U 18047E   26201.10868342  .00000078  00000+0  20702-4 0  9991
2 43480  86.3934  74.5694 0002296  87.5251 272.6208 14.34217938427200
IRIDIUM 110             
1 43481U 18047F   26201.11502418  .00000160  00000+0  49974-4 0  9996
2 43481  86.3937  74.6596 0002037  78.0242 282.1182 14.34217082427199
IRIDIUM 162             
1 43482U 18047G   26201.09484352  .00000157  00000+0  40617-4 0  9991
2 43482  86.4455  74.5986 0002186  86.7241 273.4210 14.43279956429878
IRIDIUM 160             
1 43569U 18061A   26201.06086147  .00000093  00000+0  26041-4 0  9994
2 43569  86.3939  43.0457 0002209  86.9719 273.1729 14.34217872418084
IRIDIUM 166             
1 43570U 18061B   26201.08623242  .00000018  00000+0 -78015-6 0  9999
2 43570  86.3937  42.9851 0002279  89.4405 270.7052 14.34217706418119
IRIDIUM 158             
1 43571U 18061C   26201.26382510  .00000145  00000+0  44748-4 0  9994
2 43571  86.3937  42.9206 0002113  89.0737 271.0701 14.34217825418101
IRIDIUM 165             
1 43572U 18061D   26201.28919568  .00000109  00000+0  31762-4 0  9998
2 43572  86.3944  42.9569 0002244  91.1334 269.0119 14.34217576418130
IRIDIUM 155             
1 43573U 18061E   26201.11160237  .00000042  00000+0  79855-5 0  9994
2 43573  86.3936  42.8988 0002140  90.6933 269.4508 14.34217808418077
IRIDIUM 154             
1 43574U 18061F   26201.09257536  .00000017  00000+0 -88187-6 0  9993
2 43574  86.3935  43.0421 0002197  89.0133 271.1314 14.34217324418122
IRIDIUM 163             
1 43575U 18061G   26201.07354741  .00000074  00000+0  19263-4 0  9997
2 43575  86.3935  42.9641 0002123  87.7459 272.3980 14.34217883418098
IRIDIUM 156             
1 43576U 18061H   26201.04817555  .00000123  00000+0  36737-4 0  9992
2 43576  86.3937  42.9825 0002176  93.6055 266.5390 14.34216885418081
IRIDIUM 164             
1 43577U 18061J   26201.09891790 -.00000041  00000+0 -21582-4 0  9994
2 43577  86.3934  43.0018 0002231  88.6858 271.4593 14.34217458418135
