{"fetched_at":"2026-07-20T18:28:48.101Z","source":"https://celestrak.org/NORAD/elements/gp.php?GROUP=iridium-NEXT&FORMAT=JSON","constellation":"iridium","records":[{"OBJECT_NAME":"IRIDIUM 150","OBJECT_ID":"2018-030J","EPOCH":"2026-07-20T03:34:03.440352","CLASSIFICATION_TYPE":"U","MEAN_MOTION":14.34217266,"ECCENTRICITY":0.00023325,"INCLINATION":86.3955,"RA_OF_ASC_NODE":276.6857,"ARG_OF_PERICENTER":95.9228,"MEAN_ANOMALY":264.2233,"EPHEMERIS_TYPE":0,"NORAD_CAT_ID":43257,"ELEMENT_SET_NO":999,"REV_AT_EPOCH":43488,"BSTAR":0.000006247557,"MEAN_MOTION_DOT":3.7e-7,"MEAN_MOTION_DDOT":0},{"OBJECT_NAME":"IRIDIUM 143","OBJECT_ID":"2018-030K","EPOCH":"2026-07-19T22:05:15.484704","CLASSIFICATION_TYPE":"U","MEAN_MOTION":14.34217665,"ECCENTRICITY":0.00023422,"INCLINATION":86.3956,"RA_OF_ASC_NODE":276.8747,"ARG_OF_PERICENTER":95.8548,"MEAN_ANOMALY":264.2915,"EPHEMERIS_TYPE":0,"NORAD_CAT_ID":43258,"ELEMENT_SET_NO":999,"REV_AT_EPOCH":43478,"BSTAR":0.000013754071,"MEAN_MOTION_DOT":5.8e-7,"MEAN_MOTION_DDOT":0},{"OBJECT_NAME":"IRIDIUM 161","OBJECT_ID":"2018-047C","EPOCH":"2026-07-20T02:25:39.153504","CLASSIFICATION_TYPE":"U","MEAN_MOTION":14.43277179,"ECCENTRICITY":0.00021652,"INCLINATION":86.4456,"RA_OF_ASC_NODE":74.7055,"ARG_OF_PERICENTER":80.8407,"MEAN_ANOMALY":279.3039,"EPHEMERIS_TYPE":0,"NORAD_CAT_ID":43478,"ELEMENT_SET_NO":999,"REV_AT_EPOCH":42988,"BSTAR":0.000040933352,"MEAN_MOTION_DOT":0.00000158,"MEAN_MOTION_DDOT":0},{"OBJECT_NAME":"IRIDIUM 152","OBJECT_ID":"2018-047D","EPOCH":"2026-07-20T02:27:22.231296","CLASSIFICATION_TYPE":"U","MEAN_MOTION":14.34217427,"ECCENTRICITY":0.00019718,"INCLINATION":86.3928,"RA_OF_ASC_NODE":74.5659,"ARG_OF_PERICENTER":84.0671,"MEAN_ANOMALY":276.075,"EPHEMERIS_TYPE":0,"NORAD_CAT_ID":43479,"ELEMENT_SET_NO":999,"REV_AT_EPOCH":42720,"BSTAR":-0.000031881682,"MEAN_MOTION_DOT":-6.9e-7,"MEAN_MOTION_DDOT":0},{"OBJECT_NAME":"IRIDIUM 147","OBJECT_ID":"2018-047E","EPOCH":"2026-07-20T02:36:30.247488","CLASSIFICATION_TYPE":"U","MEAN_MOTION":14.34217938,"ECCENTRICITY":0.00022968,"INCLINATION":86.3934,"RA_OF_ASC_NODE":74.5694,"ARG_OF_PERICENTER":87.5251,"MEAN_ANOMALY":272.6208,"EPHEMERIS_TYPE":0,"NORAD_CAT_ID":43480,"ELEMENT_SET_NO":999,"REV_AT_EPOCH":42720,"BSTAR":0.00002070155,"MEAN_MOTION_DOT":7.8e-7,"MEAN_MOTION_DDOT":0},{"OBJECT_NAME":"IRIDIUM 110","OBJECT_ID":"2018-047F","EPOCH":"2026-07-20T02:45:38.089152","CLASSIFICATION_TYPE":"U","MEAN_MOTION":14.34217082,"ECCENTRICITY":0.00020373,"INCLINATION":86.3937,"RA_OF_ASC_NODE":74.6596,"ARG_OF_PERICENTER":78.0242,"MEAN_ANOMALY":282.1182,"EPHEMERIS_TYPE":0,"NORAD_CAT_ID":43481,"ELEMENT_SET_NO":999,"REV_AT_EPOCH":42719,"BSTAR":0.000049973671,"MEAN_MOTION_DOT":0.0000016,"MEAN_MOTION_DDOT":0},{"OBJECT_NAME":"IRIDIUM 162","OBJECT_ID":"2018-047G","EPOCH":"2026-07-20T02:16:34.480128","CLASSIFICATION_TYPE":"U","MEAN_MOTION":14.43279956,"ECCENTRICITY":0.00021867,"INCLINATION":86.4455,"RA_OF_ASC_NODE":74.5986,"ARG_OF_PERICENTER":86.7241,"MEAN_ANOMALY":273.421,"EPHEMERIS_TYPE":0,"NORAD_CAT_ID":43482,"ELEMENT_SET_NO":999,"REV_AT_EPOCH":42987,"BSTAR":0.000040617348,"MEAN_MOTION_DOT":0.00000157,"MEAN_MOTION_DDOT":0},{"OBJECT_NAME":"IRIDIUM 160","OBJECT_ID":"2018-061A","EPOCH":"2026-07-20T01:27:38.431008","CLASSIFICATION_TYPE":"U","MEAN_MOTION":14.34217872,"ECCENTRICITY":0.00022091,"INCLINATION":86.3939,"RA_OF_ASC_NODE":43.0457,"ARG_OF_PERICENTER":86.9719,"MEAN_ANOMALY":273.1729,"EPHEMERIS_TYPE":0,"NORAD_CAT_ID":43569,"ELEMENT_SET_NO":999,"REV_AT_EPOCH":41808,"BSTAR":0.000026041396,"MEAN_MOTION_DOT":9.3e-7,"MEAN_MOTION_DDOT":0},{"OBJECT_NAME":"IRIDIUM 166","OBJECT_ID":"2018-061B","EPOCH":"2026-07-20T02:04:10.481088","CLASSIFICATION_TYPE":"U","MEAN_MOTION":14.34217706,"ECCENTRICITY":0.00022798,"INCLINATION":86.3937,"RA_OF_ASC_NODE":42.9851,"ARG_OF_PERICENTER":89.4405,"MEAN_ANOMALY":270.7052,"EPHEMERIS_TYPE":0,"NORAD_CAT_ID":43570,"ELEMENT_SET_NO":999,"REV_AT_EPOCH":41811,"BSTAR":-7.80152e-7,"MEAN_MOTION_DOT":1.8e-7,"MEAN_MOTION_DDOT":0},{"OBJECT_NAME":"IRIDIUM 158","OBJECT_ID":"2018-061C","EPOCH":"2026-07-20T06:19:54.488640","CLASSIFICATION_TYPE":"U","MEAN_MOTION":14.34217825,"ECCENTRICITY":0.00021134,"INCLINATION":86.3937,"RA_OF_ASC_NODE":42.9206,"ARG_OF_PERICENTER":89.0737,"MEAN_ANOMALY":271.0701,"EPHEMERIS_TYPE":0,"NORAD_CAT_ID":43571,"ELEMENT_SET_NO":999,"REV_AT_EPOCH":41810,"BSTAR":0.000044748091,"MEAN_MOTION_DOT":0.00000145,"MEAN_MOTION_DDOT":0},{"OBJECT_NAME":"IRIDIUM 165","OBJECT_ID":"2018-061D","EPOCH":"2026-07-20T06:56:26.506752","CLASSIFICATION_TYPE":"U","MEAN_MOTION":14.34217576,"ECCENTRICITY":0.00022444,"INCLINATION":86.3944,"RA_OF_ASC_NODE":42.9569,"ARG_OF_PERICENTER":91.1334,"MEAN_ANOMALY":269.0119,"EPHEMERIS_TYPE":0,"NORAD_CAT_ID":43572,"ELEMENT_SET_NO":999,"REV_AT_EPOCH":41813,"BSTAR":0.000031762171,"MEAN_MOTION_DOT":0.00000109,"MEAN_MOTION_DDOT":0},{"OBJECT_NAME":"IRIDIUM 155","OBJECT_ID":"2018-061E","EPOCH":"2026-07-20T02:40:42.444768","CLASSIFICATION_TYPE":"U","MEAN_MOTION":14.34217808,"ECCENTRICITY":0.00021408,"INCLINATION":86.3936,"RA_OF_ASC_NODE":42.8988,"ARG_OF_PERICENTER":90.6933,"MEAN_ANOMALY":269.4508,"EPHEMERIS_TYPE":0,"NORAD_CAT_ID":43573,"ELEMENT_SET_NO":999,"REV_AT_EPOCH":41807,"BSTAR":0.000007985506,"MEAN_MOTION_DOT":4.2e-7,"MEAN_MOTION_DDOT":0},{"OBJECT_NAME":"IRIDIUM 154","OBJECT_ID":"2018-061F","EPOCH":"2026-07-20T02:13:18.511104","CLASSIFICATION_TYPE":"U","MEAN_MOTION":14.34217324,"ECCENTRICITY":0.00021972,"INCLINATION":86.3935,"RA_OF_ASC_NODE":43.0421,"ARG_OF_PERICENTER":89.0133,"MEAN_ANOMALY":271.1314,"EPHEMERIS_TYPE":0,"NORAD_CAT_ID":43574,"ELEMENT_SET_NO":999,"REV_AT_EPOCH":41812,"BSTAR":-8.81874e-7,"MEAN_MOTION_DOT":1.7e-7,"MEAN_MOTION_DDOT":0},{"OBJECT_NAME":"IRIDIUM 163","OBJECT_ID":"2018-061G","EPOCH":"2026-07-20T01:45:54.496224","CLASSIFICATION_TYPE":"U","MEAN_MOTION":14.34217883,"ECCENTRICITY":0.00021235,"INCLINATION":86.3935,"RA_OF_ASC_NODE":42.9641,"ARG_OF_PERICENTER":87.7459,"MEAN_ANOMALY":272.398,"EPHEMERIS_TYPE":0,"NORAD_CAT_ID":43575,"ELEMENT_SET_NO":999,"REV_AT_EPOCH":41809,"BSTAR":0.000019263388,"MEAN_MOTION_DOT":7.4e-7,"MEAN_MOTION_DDOT":0},{"OBJECT_NAME":"IRIDIUM 156","OBJECT_ID":"2018-061H","EPOCH":"2026-07-20T01:09:22.367520","CLASSIFICATION_TYPE":"U","MEAN_MOTION":14.34216885,"ECCENTRICITY":0.00021763,"INCLINATION":86.3937,"RA_OF_ASC_NODE":42.9825,"ARG_OF_PERICENTER":93.6055,"MEAN_ANOMALY":266.539,"EPHEMERIS_TYPE":0,"NORAD_CAT_ID":43576,"ELEMENT_SET_NO":999,"REV_AT_EPOCH":41808,"BSTAR":0.000036737274,"MEAN_MOTION_DOT":0.00000123,"MEAN_MOTION_DDOT":0},{"OBJECT_NAME":"IRIDIUM 164","OBJECT_ID":"2018-061J","EPOCH":"2026-07-20T02:22:26.506560","CLASSIFICATION_TYPE":"U","MEAN_MOTION":14.34217458,"ECCENTRICITY":0.00022313,"INCLINATION":86.3934,"RA_OF_ASC_NODE":43.0018,"ARG_OF_PERICENTER":88.6858,"MEAN_ANOMALY":271.4593,"EPHEMERIS_TYPE":0,"NORAD_CAT_ID":43577,"ELEMENT_SET_NO":999,"REV_AT_EPOCH":41813,"BSTAR":-0.000021582348,"MEAN_MOTION_DOT":-4.1e-7,"MEAN_MOTION_DDOT":0}]}
